NORAD_CAT_ID,OBJECT_NAME,OBJECT_TYPE,EPOCH,MEAN_MOTION,ECCENTRICITY,INCLINATION,RA_OF_ASC_NODE,ARG_OF_PERICENTER,MEAN_ANOMALY,BSTAR,MEAN_MOTION_DOT,MEAN_MOTION_DDOT,TLE_LINE0,TLE_LINE1,TLE_LINE2,SEMIMAJOR_AXIS,PERIOD,APOGEE,PERIGEE,DECAYED
50848.0,STARLINK-3315,PAYLOAD,2023-10-29 14:37:27,15.08853136,0.0001298,53.2156,89.1452,84.8454,275.2686,0.00034526,5.213e-05,0.0,0 STARLINK-3315,1 50848U 22001AX  23302.60934507  .00005213  00000-0  34526-3 0  9998,2 50848  53.2156  89.1452 0001298  84.8454 275.2686 15.08853136100121,6917.84,95.437,540.603,538.807,0.0
50848.0,STARLINK-3315,PAYLOAD,2023-10-29 16:12:50,15.08856696,0.0001349,53.2153,88.847,87.9208,272.1938,0.00041645,6.349e-05,0.0,0 STARLINK-3315,1 50848U 22001AX  23302.67558374  .00006349  00000-0  41645-3 0  9990,2 50848  53.2153  88.8470 0001349  87.9208 272.1938 15.08856696100133,6917.829,95.436,540.628,538.761,0.0
50848.0,STARLINK-3315,PAYLOAD,2023-10-30 09:42:05,15.0884497,0.0001504,53.2165,85.577,87.0827,273.0337,0.00020769,3.019e-05,0.0,0 STARLINK-3315,1 50848U 22001AX  23303.40422801  .00003019  00000-0  20769-3 0  9992,2 50848  53.2165  85.5770 0001504  87.0827 273.0337 15.08844970101556,6917.865,95.437,540.771,538.69,0.0
50848.0,STARLINK-3315,PAYLOAD,2023-10-30 20:49:47,15.0884114,0.0001592,53.2161,83.4931,100.1473,259.9699,7.7834e-05,9.51e-06,0.0,0 STARLINK-3315,1 50848U 22001AX  23303.86790865  .00000951  00000-0  77834-4 0  9998,2 50848  53.2161  83.4931 0001592 100.1473 259.9699 15.08841140100312,6917.877,95.437,540.843,538.641,0.0
50848.0,STARLINK-3315,PAYLOAD,2023-10-31 12:43:39,15.08833887,0.0001772,53.2152,80.52,99.2038,260.9155,4.4681e-05,4.23e-06,0.0,0 STARLINK-3315,1 50848U 22001AX  23304.53031456  .00000423  00000-0  44681-4 0  9995,2 50848  53.2152  80.5200 0001772  99.2038 260.9155 15.08833887101728,6917.899,95.438,540.99,538.538,0.0
50848.0,STARLINK-3315,PAYLOAD,2023-10-31 14:19:02,15.08834237,0.0001662,53.2166,80.2231,97.7014,262.4167,-8.1207e-06,-4.17e-06,0.0,0 STARLINK-3315,1 50848U 22001AX  23304.59655480 -.00000417  00000-0 -81207-5 0  9991,2 50848  53.2166  80.2231 0001662  97.7014 262.4167 15.08834237100425,6917.898,95.438,540.913,538.613,0.0
50848.0,STARLINK-3315,PAYLOAD,2023-10-31 19:05:11,15.0884201,0.0001489,53.218,79.3304,93.4009,266.7154,0.00017493,2.497e-05,0.0,0 STARLINK-3315,1 50848U 22001AX  23304.79527298  .00002497  00000-0  17493-3 0  9990,2 50848  53.2180  79.3304 0001489  93.4009 266.7154 15.08842010100459,6917.874,95.437,540.769,538.709,0.0
50848.0,STARLINK-3315,PAYLOAD,2023-11-01 14:09:49,15.08843564,0.0001597,53.2188,75.7615,91.2788,268.8387,0.0003319,4.999e-05,0.0,0 STARLINK-3315,1 50848U 22001AX  23305.59015560  .00004999  00000-0  33190-3 0  9994,2 50848  53.2188  75.7615 0001597  91.2788 268.8387 15.08843564100571,6917.869,95.437,540.839,538.63,0.0
50848.0,STARLINK-3315,PAYLOAD,2023-11-01 15:45:12,15.08849749,0.0001436,53.2177,75.465,88.7179,271.3977,0.00045647,6.986e-05,0.0,0 STARLINK-3315,1 50848U 22001AX  23305.65639387  .00006986  00000-0  45647-3 0  9998,2 50848  53.2177  75.4650 0001436  88.7179 271.3977 15.08849749101893,6917.851,95.437,540.709,538.722,0.0
50848.0,STARLINK-3315,PAYLOAD,2023-11-02 12:25:13,15.08841901,0.0001537,53.2187,71.6,101.0882,259.0283,7.449e-05,8.98e-06,0.0,0 STARLINK-3315,1 50848U 22001AX  23306.51751489  .00000898  00000-0  74490-4 0  9997,2 50848  53.2187  71.6000 0001537 101.0882 259.0283 15.08841901102024,6917.875,95.437,540.803,538.676,0.0
50848.0,STARLINK-3315,PAYLOAD,2023-11-02 14:00:36,15.08842962,0.0001607,53.219,71.303,102.4704,257.6468,9.6063e-05,1.241e-05,0.0,0 STARLINK-3315,1 50848U 22001AX  23306.58375468  .00001241  00000-0  96063-4 0  9996,2 50848  53.2190  71.3030 0001607 102.4704 257.6468 15.08842962100726,6917.871,95.437,540.848,538.625,0.0
50848.0,STARLINK-3315,PAYLOAD,2023-11-02 15:35:59,15.08846692,0.0001476,53.2186,71.0075,99.0865,261.0294,0.00016204,2.292e-05,0.0,0 STARLINK-3315,1 50848U 22001AX  23306.64999307  .00002292  00000-0  16204-3 0  9992,2 50848  53.2186  71.0075 0001476  99.0865 261.0294 15.08846692100731,6917.86,95.437,540.746,538.704,0.0
50848.0,STARLINK-3315,PAYLOAD,2023-11-03 13:51:23,15.08839441,0.000159,53.2192,66.844,88.6726,271.4448,-5.3484e-05,-1.139e-05,0.0,0 STARLINK-3315,1 50848U 22001AX  23307.57735802 -.00001139  00000-0 -53484-4 0  9996,2 50848  53.2192  66.8440 0001590  88.6726 271.4448 15.08839441100878,6917.882,95.438,540.847,538.647,0.0
50848.0,STARLINK-3315,PAYLOAD,2023-11-03 17:02:09,15.08844438,0.0001523,53.2193,66.2493,86.9146,273.2021,3.7785e-05,3.13e-06,0.0,0 STARLINK-3315,1 50848U 22001AX  23307.70983571  .00000313  00000-0  37785-4 0  9996,2 50848  53.2193  66.2493 0001523  86.9146 273.2021 15.08844438102202,6917.867,95.437,540.785,538.678,0.0
50848.0,STARLINK-3315,PAYLOAD,2023-11-04 13:42:10,15.08844039,0.0001395,53.2163,62.3818,109.9831,250.1311,0.0001929,2.784e-05,0.0,0 STARLINK-3315,1 50848U 22001AX  23308.57095710  .00002784  00000-0  19290-3 0  9995,2 50848  53.2163  62.3818 0001395 109.9831 250.1311 15.08844039101023,6917.868,95.437,540.698,538.768,0.0
50848.0,STARLINK-3315,PAYLOAD,2023-11-04 15:17:33,15.08847749,0.0001364,53.2167,62.084,105.1632,254.9511,0.0002869,4.282e-05,0.0,0 STARLINK-3315,1 50848U 22001AX  23308.63719649  .00004282  00000-0  28690-3 0  9995,2 50848  53.2167  62.0840 0001364 105.1632 254.9511 15.08847749101038,6917.857,95.437,540.665,538.778,0.0
50848.0,STARLINK-3315,PAYLOAD,2023-11-05 00:49:52,15.08844874,0.0001246,53.2167,60.301,93.3889,266.7245,0.000226,3.311e-05,0.0,0 STARLINK-3315,1 50848U 22001AX  23309.03463865  .00003311  00000-0  22600-3 0  9993,2 50848  53.2167  60.3010 0001246  93.3889 266.7245 15.08844874102402,6917.865,95.437,540.592,538.869,0.0
50848.0,STARLINK-3315,PAYLOAD,2023-11-05 13:32:57,15.08849536,0.0001248,53.2171,57.9232,88.5414,271.5721,0.00029423,4.399e-05,0.0,0 STARLINK-3315,1 50848U 22001AX  23309.56455513  .00004399  00000-0  29423-3 0  9999,2 50848  53.2171  57.9232 0001248  88.5414 271.5721 15.08849536101173,6917.851,95.437,540.58,538.853,0.0
50848.0,STARLINK-3315,PAYLOAD,2023-11-05 15:08:20,15.08863212,0.0001395,53.2176,57.6232,99.0334,261.0816,0.00049918,7.67e-05,0.0,0 STARLINK-3315,1 50848U 22001AX  23309.63078909  .00007670  00000-0  49918-3 0  9993,2 50848  53.2176  57.6232 0001395  99.0334 261.0816 15.08863212102498,6917.809,95.436,540.639,538.709,0.0
50848.0,STARLINK-3315,PAYLOAD,2023-11-06 00:40:39,15.08856311,0.0001458,53.2188,55.8399,85.2764,274.8395,0.00034633,5.231e-05,0.0,0 STARLINK-3315,1 50848U 22001AX  23310.02823028  .00005231  00000-0  34633-3 0  9997,2 50848  53.2188  55.8399 0001458  85.2764 274.8395 15.08856311102552,6917.831,95.437,540.704,538.687,0.0
50848.0,STARLINK-3315,PAYLOAD,2023-11-06 13:23:45,15.08803324,0.0001361,53.2174,53.4621,87.6178,272.497,-0.0010737,-0.00017318,0.0,0 STARLINK-3315,1 50848U 22001AX  23310.55816036 -.00017318  00000-0 -10737-2 0  9995,2 50848  53.2174  53.4621 0001361  87.6178 272.4970 15.08803324101320,6917.992,95.44,540.799,538.916,0.0
50848.0,STARLINK-3315,PAYLOAD,2023-11-07 11:39:10,15.08813162,0.0001555,53.2182,49.2998,92.5732,267.5438,-8.2529e-05,-1.6e-05,0.0,0 STARLINK-3315,1 50848U 22001AX  23311.48554111 -.00001600  00000-0 -82529-4 0  9998,2 50848  53.2182  49.2998 0001555  92.5732 267.5438 15.08813162102770,6917.962,95.439,540.903,538.752,0.0
50848.0,STARLINK-3315,PAYLOAD,2023-11-07 13:14:33,15.08814996,0.0001514,53.2173,49.0011,89.6966,270.42,-5.0162e-05,-1.086e-05,0.0,0 STARLINK-3315,1 50848U 22001AX  23311.55178119 -.00001086  00000-0 -50162-4 0  9992,2 50848  53.2173  49.0011 0001514  89.6966 270.4200 15.08814996101477,6917.957,95.439,540.869,538.774,0.0
50848.0,STARLINK-3315,PAYLOAD,2023-11-08 11:29:57,15.08851355,0.0001545,53.2175,44.8404,68.9324,291.1833,0.00073955,0.00011505,0.0,0 STARLINK-3315,1 50848U 22001AX  23312.47913975  .00011505  00000-0  73955-3 0  9990,2 50848  53.2175  44.8404 0001545  68.9324 291.1833 15.08851355102923,6917.846,95.437,540.779,538.642,0.0
50848.0,STARLINK-3315,PAYLOAD,2023-11-09 11:20:44,15.08854519,0.0001402,53.2175,40.3792,93.2899,266.8253,0.00035556,5.378e-05,0.0,0 STARLINK-3315,1 50848U 22001AX  23313.47273323  .00005378  00000-0  35556-3 0  9993,2 50848  53.2175  40.3792 0001402  93.2899 266.8253 15.08854519103071,6917.836,95.437,540.671,538.731,0.0
50848.0,STARLINK-3315,PAYLOAD,2023-11-09 22:28:25,15.08856148,0.0001262,53.2166,38.2982,82.2407,277.8729,0.00012491,1.701e-05,0.0,0 STARLINK-3315,1 50848U 22001AX  23313.93640709  .00001701  00000-0  12491-3 0  9999,2 50848  53.2166  38.2982 0001262  82.2407 277.8729 15.08856148101837,6917.831,95.437,540.569,538.823,0.0
50848.0,STARLINK-3315,PAYLOAD,2023-11-10 12:46:53,15.08850862,0.0001393,53.2184,35.6205,72.3688,287.7456,-8.1163e-05,-1.58e-05,0.0,0 STARLINK-3315,1 50848U 22001AX  23314.53256675 -.00001580  00000-0 -81163-4 0  9991,2 50848  53.2184  35.6205 0001393  72.3688 287.7456 15.08850862103232,6917.847,95.437,540.676,538.749,0.0
50848.0,STARLINK-3315,PAYLOAD,2023-11-10 22:19:12,15.0884229,0.0001305,53.2179,33.8374,83.1317,276.9823,-4.656e-05,-1.029e-05,0.0,0 STARLINK-3315,1 50848U 22001AX  23314.93001046 -.00001029  00000-0 -46560-4 0  9995,2 50848  53.2179  33.8374 0001305  83.1317 276.9823 15.08842290103295,6917.873,95.437,540.641,538.836,0.0
50848.0,STARLINK-3315,PAYLOAD,2023-11-11 12:37:41,15.08837024,0.0001296,53.2186,31.1613,87.4447,272.6693,-1.9284e-05,-5.95e-06,0.0,0 STARLINK-3315,1 50848U 22001AX  23315.52617932 -.00000595  00000-0 -19284-4 0  9998,2 50848  53.2186  31.1613 0001296  87.4447 272.6693 15.08837024102072,6917.889,95.438,540.651,538.858,0.0
50848.0,STARLINK-3315,PAYLOAD,2023-11-12 10:53:03,15.08911023,9.62e-05,53.2184,26.9986,72.5184,287.5913,-0.00095897,-0.00015547,0.0,0 STARLINK-3315,1 50848U 22001AX  23316.45351078 -.00015547  00000-0 -95897-3 0  9993,2 50848  53.2184  26.9986 0000962  72.5184 287.5913 15.08911023103520,6917.663,95.433,540.194,538.863,0.0
